{"type": "FeatureCollection", "features": [ {"type": "Feature", "properties": {"norad_id": 31056, "name": "FENGYUN 1C DEB", "group": "fengyun-1c-debris", "lat": -77.82928875794401, "lon": 114.64038740402614, "alt_km": 840.3865494107631, "timestamp": "2025-12-23T09:49:07.363627+00:00", "meta": {"OBJECT_NAME": "FENGYUN 1C DEB", "OBJECT_ID": "1999-025BFA", "EPOCH": "2025-12-18T10:27:05.770944", "MEAN_MOTION": 14.14314319, "ECCENTRICITY": 0.0025209, "INCLINATION": 98.6671, "RA_OF_ASC_NODE": 334.8253, "ARG_OF_PERICENTER": 326.3437, "MEAN_ANOMALY": 186.0528, "EPHEMERIS_TYPE": 0, "CLASSIFICATION_TYPE": "U", "NORAD_CAT_ID": 31056, "ELEMENT_SET_NO": 999, "REV_AT_EPOCH": 96898, "BSTAR": 0.00032091776, "MEAN_MOTION_DOT": 5.72e-06, "MEAN_MOTION_DDOT": 0}, "tle": {"line1": "1 31056U 99025BFA 25352.43548346  .00000572  00000+0  32092-3 0  9996", "line2": "2 31056  98.6671 334.8253 0025209 326.3437 186.0528 14.14314319968989"}}, "geometry": {"type": "Point", "coordinates": [114.64038740402614, -77.82928875794401]}}, {"type": "Feature", "properties": {"norad_id": 31057, "name": "FENGYUN 1C DEB", "group": "fengyun-1c-debris", "lat": 49.676007419901815, "lon": -130.4794709849106, "alt_km": 623.7449580840193, "timestamp": "2025-12-23T09:49:07.363638+00:00", "meta": {"OBJECT_NAME": "FENGYUN 1C DEB", "OBJECT_ID": "1999-025BFB", "EPOCH": "2025-12-18T22:05:50.245152", "MEAN_MOTION": 14.79471087, "ECCENTRICITY": 0.0137517, "INCLINATION": 99.2565, "RA_OF_ASC_NODE": 33.2779, "ARG_OF_PERICENTER": 232.6273, "MEAN_ANOMALY": 126.2347, "EPHEMERIS_TYPE": 0, "CLASSIFICATION_TYPE": "U", "NORAD_CAT_ID": 31057, "ELEMENT_SET_NO": 999, "REV_AT_EPOCH": 62044, "BSTAR": 0.00071207, "MEAN_MOTION_DOT": 6.17e-05, "MEAN_MOTION_DDOT": 0}, "tle": {"line1": "1 31057U 99025BFB 25352.92072043  .00006170  00000+0  71207-3 0  9998", "line2": "2 31057  99.2565  33.2779 0137517 232.6273 126.2347 14.79471087620443"}}, "geometry": {"type": "Point", "coordinates": [-130.4794709849106, 49.676007419901815]}}, {"type": "Feature", "properties": {"norad_id": 31058, "name": "FENGYUN 1C DEB", "group": "fengyun-1c-debris", "lat": -1.1681258422044127, "lon": 128.44006342532796, "alt_km": 662.9135361914778, "timestamp": "2025-12-23T09:49:07.363648+00:00", "meta": {"OBJECT_NAME": "FENGYUN 1C DEB", "OBJECT_ID": "1999-025BFC", "EPOCH": "2025-12-21T14:43:24.738528", "MEAN_MOTION": 14.76461843, "ECCENTRICITY": 0.00952203, "INCLINATION": 99.5682, "RA_OF_ASC_NODE": 306.5125, "ARG_OF_PERICENTER": 79.2038, "MEAN_ANOMALY": 281.9867, "EPHEMERIS_TYPE": 0, "CLASSIFICATION_TYPE": "U", "NORAD_CAT_ID": 31058, "ELEMENT_SET_NO": 999, "REV_AT_EPOCH": 99680, "BSTAR": 0.0010269728, "MEAN_MOTION_DOT": 7.633e-05, "MEAN_MOTION_DDOT": 0}, "tle": {"line1": "1 31058U 99025BFC 25355.61348077  .00007633  00000+0  10270-2 0  9998", "line2": "2 31058  99.5682 306.5125 0095220  79.2038 281.9867 14.76461843996804"}}, "geometry": {"type": "Point", "coordinates": [128.44006342532796, -1.1681258422044127]}}, {"type": "Feature", "properties": {"norad_id": 31062, "name": "FENGYUN 1C DEB", "group": "fengyun-1c-debris", "lat": 80.08694793730028, "lon": 114.18163153163337, "alt_km": 1086.9813686614234, "timestamp": "2025-12-23T09:49:07.363658+00:00", "meta": {"OBJECT_NAME": "FENGYUN 1C DEB", "OBJECT_ID": "1999-025BFG", "EPOCH": "2025-12-21T19:04:32.530944", "MEAN_MOTION": 13.75696245, "ECCENTRICITY": 0.01714117, "INCLINATION": 98.9968, "RA_OF_ASC_NODE": 177.6844, "ARG_OF_PERICENTER": 293.7369, "MEAN_ANOMALY": 80.7962, "EPHEMERIS_TYPE": 0, "CLASSIFICATION_TYPE": "U", "NORAD_CAT_ID": 31062, "ELEMENT_SET_NO": 999, "REV_AT_EPOCH": 94358, "BSTAR": 0.00022693865, "MEAN_MOTION_DOT": 2.01e-06, "MEAN_MOTION_DDOT": 0}, "tle": {"line1": "1 31062U 99025BFG 25355.79482096  .00000201  00000+0  22694-3 0  9990", "line2": "2 31062  98.9968 177.6844 0171411 293.7369  80.7962 13.75696245943583"}}, "geometry": {"type": "Point", "coordinates": [114.18163153163337, 80.08694793730028]}}, {"type": "Feature", "properties": {"norad_id": 31064, "name": "FENGYUN 1C DEB", "group": "fengyun-1c-debris", "lat": -36.250442810656246, "lon": 153.4595799859027, "alt_km": 891.3248854669382, "timestamp": "2025-12-23T09:49:07.363668+00:00", "meta": {"OBJECT_NAME": "FENGYUN 1C DEB", "OBJECT_ID": "1999-025BFJ", "EPOCH": "2025-12-22T16:43:33.472416", "MEAN_MOTION": 14.22156979, "ECCENTRICITY": 0.02409286, "INCLINATION": 98.5748, "RA_OF_ASC_NODE": 339.1181, "ARG_OF_PERICENTER": 332.6859, "MEAN_ANOMALY": 202.2646, "EPHEMERIS_TYPE": 0, "CLASSIFICATION_TYPE": "U", "NORAD_CAT_ID": 31064, "ELEMENT_SET_NO": 999, "REV_AT_EPOCH": 97396, "BSTAR": 0.00032635852, "MEAN_MOTION_DOT": 9.23e-06, "MEAN_MOTION_DDOT": 0}, "tle": {"line1": "1 31064U 99025BFJ 25356.69691519  .00000923  00000+0  32636-3 0  9992", "line2": "2 31064  98.5748 339.1181 0240928 332.6859 202.2646 14.22156979973966"}}, "geometry": {"type": "Point", "coordinates": [153.4595799859027, -36.250442810656246]}}, {"type": "Feature", "properties": {"norad_id": 31065, "name": "FENGYUN 1C DEB", "group": "fengyun-1c-debris", "lat": 20.913907157016844, "lon": 12.930028353256255, "alt_km": 774.251943612986, "timestamp": "2025-12-23T09:49:07.363678+00:00", "meta": {"OBJECT_NAME": "FENGYUN 1C DEB", "OBJECT_ID": "1999-025BFK", "EPOCH": "2025-12-20T07:44:23.606880", "MEAN_MOTION": 14.28204774, "ECCENTRICITY": 0.00348587, "INCLINATION": 98.4646, "RA_OF_ASC_NODE": 13.1998, "ARG_OF_PERICENTER": 9.0765, "MEAN_ANOMALY": 351.1039, "EPHEMERIS_TYPE": 0, "CLASSIFICATION_TYPE": "U", "NORAD_CAT_ID": 31065, "ELEMENT_SET_NO": 999, "REV_AT_EPOCH": 64686, "BSTAR": 0.00062313484, "MEAN_MOTION_DOT": 1.52e-05, "MEAN_MOTION_DDOT": 0}, "tle": {"line1": "1 31065U 99025BFK 25354.32249545  .00001520  00000+0  62313-3 0  9998", "line2": "2 31065  98.4646  13.1998 0034858   9.0765 351.1039 14.28204774646861"}}, "geometry": {"type": "Point", "coordinates": [12.930028353256255, 20.913907157016844]}}, {"type": "Feature", "properties": {"norad_id": 31068, "name": "FENGYUN 1C DEB", "group": "fengyun-1c-debris", "lat": 50.00183808268652, "lon": -31.292751349030084, "alt_km": 761.1452033040987, "timestamp": "2025-12-23T09:49:07.363688+00:00", "meta": {"OBJECT_NAME": "FENGYUN 1C DEB", "OBJECT_ID": "1999-025BFN", "EPOCH": "2025-12-22T16:32:29.846976", "MEAN_MOTION": 14.09197133, "ECCENTRICITY": 0.01658935, "INCLINATION": 98.6305, "RA_OF_ASC_NODE": 338.4459, "ARG_OF_PERICENTER": 90.14, "MEAN_ANOMALY": 271.878, "EPHEMERIS_TYPE": 0, "CLASSIFICATION_TYPE": "U", "NORAD_CAT_ID": 31068, "ELEMENT_SET_NO": 999, "REV_AT_EPOCH": 96495, "BSTAR": 0.00015236444, "MEAN_MOTION_DOT": 2.6e-06, "MEAN_MOTION_DDOT": 0}, "tle": {"line1": "1 31068U 99025BFN 25356.68923434  .00000260  00000+0  15236-3 0  9990", "line2": "2 31068  98.6305 338.4459 0165893  90.1400 271.8780 14.09197133964957"}}, "geometry": {"type": "Point", "coordinates": [-31.292751349030084, 50.00183808268652]}}, {"type": "Feature", "properties": {"norad_id": 31069, "name": "FENGYUN 1C DEB", "group": "fengyun-1c-debris", "lat": 79.68908763983066, "lon": 96.92107389662229, "alt_km": 637.9311928645575, "timestamp": "2025-12-23T09:49:07.363701+00:00", "meta": {"OBJECT_NAME": "FENGYUN 1C DEB", "OBJECT_ID": "1999-025BFP", "EPOCH": "2025-12-20T17:09:56.113056", "MEAN_MOTION": 14.57151959, "ECCENTRICITY": 0.01043248, "INCLINATION": 99.0993, "RA_OF_ASC_NODE": 155.736, "ARG_OF_PERICENTER": 53.4161, "MEAN_ANOMALY": 307.6579, "EPHEMERIS_TYPE": 0, "CLASSIFICATION_TYPE": "U", "NORAD_CAT_ID": 31069, "ELEMENT_SET_NO": 999, "REV_AT_EPOCH": 98802, "BSTAR": 0.00037067692, "MEAN_MOTION_DOT": 1.741e-05, "MEAN_MOTION_DDOT": 0}, "tle": {"line1": "1 31069U 99025BFP 25354.71523279  .00001741  00000+0  37068-3 0  9998", "line2": "2 31069  99.0993 155.7360 0104324  53.4161 307.6579 14.57151959988022"}}, "geometry": {"type": "Point", "coordinates": [96.92107389662229, 79.68908763983066]}}, {"type": "Feature", "properties": {"norad_id": 31071, "name": "FENGYUN 1C DEB", "group": "fengyun-1c-debris", "lat": 10.233570519086648, "lon": 74.32912593013691, "alt_km": 738.5354460200842, "timestamp": "2025-12-23T09:49:07.363711+00:00", "meta": {"OBJECT_NAME": "FENGYUN 1C DEB", "OBJECT_ID": "1999-025BFR", "EPOCH": "2025-12-17T11:36:27.822240", "MEAN_MOTION": 14.52669079, "ECCENTRICITY": 0.00558821, "INCLINATION": 99.0414, "RA_OF_ASC_NODE": 69.5951, "ARG_OF_PERICENTER": 267.3702, "MEAN_ANOMALY": 92.1094, "EPHEMERIS_TYPE": 0, "CLASSIFICATION_TYPE": "U", "NORAD_CAT_ID": 31071, "ELEMENT_SET_NO": 999, "REV_AT_EPOCH": 65563, "BSTAR": 0.00084122866, "MEAN_MOTION_DOT": 3.464e-05, "MEAN_MOTION_DDOT": 0}, "tle": {"line1": "1 31071U 99025BFR 25351.48365535  .00003464  00000+0  84123-3 0  9999", "line2": "2 31071  99.0414  69.5951 0055882 267.3702  92.1094 14.52669079655630"}}, "geometry": {"type": "Point", "coordinates": [74.32912593013691, 10.233570519086648]}}, {"type": "Feature", "properties": {"norad_id": 31072, "name": "FENGYUN 1C DEB", "group": "fengyun-1c-debris", "lat": -80.61583192032606, "lon": 99.22837498256925, "alt_km": 954.0299631065382, "timestamp": "2025-12-23T09:49:07.363721+00:00", "meta": {"OBJECT_NAME": "FENGYUN 1C DEB", "OBJECT_ID": "1999-025BFS", "EPOCH": "2025-12-22T05:36:50.483232", "MEAN_MOTION": 14.25515338, "ECCENTRICITY": 0.02103102, "INCLINATION": 99.3319, "RA_OF_ASC_NODE": 2.2271, "ARG_OF_PERICENTER": 70.7103, "MEAN_ANOMALY": 291.669, "EPHEMERIS_TYPE": 0, "CLASSIFICATION_TYPE": "U", "NORAD_CAT_ID": 31072, "ELEMENT_SET_NO": 999, "REV_AT_EPOCH": 96778, "BSTAR": 0.00058124662, "MEAN_MOTION_DOT": 1.68e-05, "MEAN_MOTION_DDOT": 0}, "tle": {"line1": "1 31072U 99025BFS 25356.23391763  .00001680  00000+0  58125-3 0  9991", "line2": "2 31072  99.3319   2.2271 0210310  70.7103 291.6690 14.25515338967785"}}, "geometry": {"type": "Point", "coordinates": [99.22837498256925, -80.61583192032606]}}]}